NORAD_CAT_ID,OBJECT_NAME,OBJECT_TYPE,EPOCH,MEAN_MOTION,ECCENTRICITY,INCLINATION,RA_OF_ASC_NODE,ARG_OF_PERICENTER,MEAN_ANOMALY,BSTAR,MEAN_MOTION_DOT,MEAN_MOTION_DDOT,TLE_LINE0,TLE_LINE1,TLE_LINE2,SEMIMAJOR_AXIS,PERIOD,APOGEE,PERIGEE,DECAYED
53996.0,STARLINK-5131,PAYLOAD,2022-11-18 14:00:01,15.49864899,0.0001412,53.2162,236.6262,52.1372,153.0223,0.00081738,0.0004618,0.0,0 STARLINK-5131,1 53996U 22125AJ  22322.58334491  .00046180  00000-0  81738-3 0  9991,2 53996  53.2162 236.6262 0001412  52.1372 153.0223 15.49864899  7240,6795.2580000000025,92.911,418.082,416.163,0.0
53996.0,STARLINK-5131,PAYLOAD,2022-11-18 22:00:00,15.49908829,0.0001493,53.2162,235.0341,53.3665,212.6945,-0.00027645,-0.00016123,0.0,0 STARLINK-5131,1 53996U 22125AJ  22322.91667824 -.00016123  00000-0 -27645-3 0  9990,2 53996  53.2162 235.0341 0001493  53.3665 212.6945 15.49908829  1304,6795.13,92.909,418.009,415.98,0.0
53996.0,STARLINK-5131,PAYLOAD,2022-11-19 06:00:00,15.49890879,0.000157,53.2158,233.4421,46.4352,280.5642,0.00084217,0.00047648,0.0,0 STARLINK-5131,1 53996U 22125AJ  22323.25001157  .00047648  00000-0  84217-3 0  9991,2 53996  53.2158 233.4421 0001570  46.4352 280.5642 15.49890879  7345,6795.182,92.91,418.114,415.98,0.0
53996.0,STARLINK-5131,PAYLOAD,2022-11-19 14:00:01,15.49919673,0.0001293,53.216,231.847,52.9687,334.975,-0.00076288,-0.00043562,0.0,0 STARLINK-5131,1 53996U 22125AJ  22323.58334491 -.00043562  00000-0 -76288-3 0  9999,2 53996  53.2160 231.8470 0001293  52.9687 334.9750 15.49919673  7404,6795.098000000001,92.908,417.841,416.084,0.0
53996.0,STARLINK-5131,PAYLOAD,2022-11-19 22:00:00,15.49883507,0.0001288,53.2163,230.2549,48.1988,40.6839,-0.00034476,-0.00019967,0.0,0 STARLINK-5131,1 53996U 22125AJ  22323.91667824 -.00019967  00000-0 -34476-3 0  9990,2 53996  53.2163 230.2549 0001288  48.1988  40.6839 15.49883507  1300,6795.204000000002,92.91,417.944,416.193,0.0
53996.0,STARLINK-5131,PAYLOAD,2022-11-20 14:00:01,15.49865302,0.0001221,53.2167,227.0677,47.8693,162.8299,0.0010012,0.00056745,0.0,0 STARLINK-5131,1 53996U 22125AJ  22324.58334491  .00056745  00000-0  10012-2 0  9997,2 53996  53.2167 227.0677 0001221  47.8693 162.8299 15.49865302  7559,6795.257,92.911,417.951,416.292,0.0
53996.0,STARLINK-5131,PAYLOAD,2022-11-20 22:00:00,15.49937401,0.0001291999999999,53.217,225.4759,44.8839,226.7238,-0.0020863,-0.0011732,0.0,0 STARLINK-5131,1 53996U 22125AJ  22324.91667824 -.00117320  00000-0 -20863-2 0  9997,2 53996  53.2170 225.4759 0001292  44.8839 226.7238 15.49937401  1303,6795.045999999999,92.907,417.789,416.033,0.0
53996.0,STARLINK-5131,PAYLOAD,2022-11-21 06:00:00,15.49844552,0.0001329,53.2169,223.8836,32.7566,299.7732,0.00049293,0.00027584,0.0,0 STARLINK-5131,1 53996U 22125AJ  22325.25001157  .00027584  00000-0  49293-3 0  9995,2 53996  53.2169 223.8836 0001329  32.7566 299.7732 15.49844552  7650,6795.316999999999,92.913,418.086,416.279,0.0
53996.0,STARLINK-5131,PAYLOAD,2022-11-21 14:00:01,15.49837745,0.0001153,53.2169,222.2888,41.2749,352.141,0.0010772,0.00061061,0.0,0 STARLINK-5131,1 53996U 22125AJ  22325.58334491  .00061061  00000-0  10772-2 0  9998,2 53996  53.2169 222.2888 0001153  41.2749 352.1410 15.49837745  1302,6795.337,92.913,417.986,416.419,0.0
53996.0,STARLINK-5131,PAYLOAD,2022-11-21 22:00:00,15.49886541,0.0001323,53.2168,220.6973,39.948,54.3445,-0.00035726,-0.00020675,0.0,0 STARLINK-5131,1 53996U 22125AJ  22325.91667824 -.00020675  00000-0 -35726-3 0  9999,2 53996  53.2168 220.6973 0001323  39.9480  54.3445 15.49886541  1300,6795.195,92.91,417.959,416.161,0.0
53996.0,STARLINK-5131,PAYLOAD,2022-11-22 04:00:00,15.49856881,0.0001440999999999,53.2165,219.5035,36.3846,13.593,0.00099979,0.00056647,0.0,0 STARLINK-5131,1 53996U 22125AJ  22326.16667824  .00056647  00000-0  99979-3 0  9993,2 53996  53.2165 219.5035 0001441  36.3846  13.5930 15.49856881  7802,6795.281,92.912,418.126,416.167,0.0
53996.0,STARLINK-5131,PAYLOAD,2022-11-22 14:00:01,15.49867735,0.0001186,53.2164,217.5081,45.2756,170.9103,0.0011184,0.00063501,0.0,0 STARLINK-5131,1 53996U 22125AJ  22326.58335648  .00063501  00000-0  11184-2 0  9993,2 53996  53.2164 217.5081 0001186  45.2756 170.9103 15.49867735  1304,6795.25,92.911,417.921,416.309,0.0
53996.0,STARLINK-5131,PAYLOAD,2022-11-22 20:00:01,15.50100143,0.0001284999999999,53.2171,216.3118,60.8475,110.9227,-0.011544,-0.00611507,0.0,0 STARLINK-5131,1 53996U 22125AJ  22326.83334491 -.00611507  00000-0 -11544-1 0  9992,2 53996  53.2171 216.3118 0001285  60.8475 110.9227 15.50100143  7909,6794.57,92.897,417.309,415.562,0.0
53996.0,STARLINK-5131,PAYLOAD,2022-11-22 22:00:00,15.50030372,0.00012,53.2172,215.9136,60.4142,216.615,-0.012609,-0.00661947,0.0,0 STARLINK-5131,1 53996U 22125AJ  22326.91667824 -.00661947  00000-0 -12609-1 0  9996,2 53996  53.2172 215.9136 0001200  60.4142 216.6150 15.50030372  1302,6794.774,92.901,417.455,415.824,0.0
53996.0,STARLINK-5131,PAYLOAD,2022-11-23 04:00:00,15.49602282,0.0001668,53.2168,214.7187,45.3034,187.4856,-0.014473,-0.00750707,0.0,0 STARLINK-5131,1 53996U 22125AJ  22327.16667824 -.00750707  00000-0 -14473-1 0  9998,2 53996  53.2168 214.7187 0001668  45.3034 187.4856 15.49602282  7958,6796.026,92.927,419.024,416.757,0.0
53996.0,STARLINK-5131,PAYLOAD,2022-11-23 14:00:01,15.48895547,0.0001396999999999,53.2173,212.7246,41.8179,356.1917,-0.022788,-0.01143217,0.0,0 STARLINK-5131,1 53996U 22125AJ  22327.58334491 -.01143217  00000-0 -22788-1 0  9996,2 53996  53.2173 212.7246 0001397  41.8179 356.1917 15.48895547  8027,6798.093000000003,92.969,420.907,419.008,0.0
53996.0,STARLINK-5131,PAYLOAD,2022-11-23 22:00:00,15.4806668,0.000158,53.2172,211.1374,45.5337,51.7098,-0.022977,-0.01105508,0.0,0 STARLINK-5131,1 53996U 22125AJ  22327.91667824 -.01105508  00000-0 -22977-1 0  9993,2 53996  53.2172 211.1374 0001580  45.5337  51.7098 15.48066680  1302,6800.519,93.019,423.459,421.31,0.0
53996.0,STARLINK-5131,PAYLOAD,2022-11-24 04:00:00,15.4751524,0.0001704,53.2167,209.9475,30.4323,20.5554,-0.025056,-0.01192786,0.0,0 STARLINK-5131,1 53996U 22125AJ  22328.16667824 -.01192786  00000-0 -25056-1 0  9996,2 53996  53.2167 209.9475 0001704  30.4323  20.5554 15.47515240  8116,6802.135,93.052,425.159,422.84,0.0
53996.0,STARLINK-5131,PAYLOAD,2022-11-24 14:00:01,15.46456032,0.0001710999999999,53.2171,207.9625,37.9702,174.7893,-0.024863,-0.0114505,0.0,0 STARLINK-5131,1 53996U 22125AJ  22328.58334491 -.01145050  00000-0 -24863-1 0  9990,2 53996  53.2171 207.9625 0001711  37.9702 174.7893 15.46456032  1301,6805.24,93.116,428.27,425.941,0.0
53996.0,STARLINK-5131,PAYLOAD,2022-11-24 22:00:00,15.45660171,0.0001537,53.2173,206.3802,48.1149,220.9292,-0.026122,-0.01168103,0.0,0 STARLINK-5131,1 53996U 22125AJ  22328.91667824 -.01168103  00000-0 -26122-1 0  9990,2 53996  53.2173 206.3802 0001537  48.1149 220.9292 15.45660171  1305,6807.576,93.164,430.487,428.395,0.0
53996.0,STARLINK-5131,PAYLOAD,2022-11-25 06:00:00,15.44840686,0.0001587,53.2169,204.7981,38.0654,286.2994,-0.026706,-0.01161604,0.0,0 STARLINK-5131,1 53996U 22125AJ  22329.25001157 -.01161604  00000-0 -26706-1 0  9996,2 53996  53.2169 204.7981 0001587  38.0654 286.2994 15.44840686  8271,6809.983,93.213,432.929,430.767,0.0
53996.0,STARLINK-5131,PAYLOAD,2022-11-25 14:00:01,15.44013365,0.0001714,53.2172,203.2167,30.5859,348.1249,-0.026966,-0.01141993,0.0,0 STARLINK-5131,1 53996U 22125AJ  22329.58334491 -.01141993  00000-0 -26966-1 0  9999,2 53996  53.2172 203.2167 0001714  30.5859 348.1249 15.44013365  1305,6812.416,93.263,435.448,433.11300000000006,0.0
53996.0,STARLINK-5131,PAYLOAD,2022-11-25 22:00:00,15.43214824,0.0001686999999999,53.2174,201.6402,38.4157,33.6482,-0.028261,-0.0116277,0.0,0 STARLINK-5131,1 53996U 22125AJ  22329.91667824 -.01162770  00000-0 -28261-1 0  9991,2 53996  53.2174 201.6402 0001687  38.4157  33.6482 15.43214824  1305,6814.766,93.312,437.78,435.481,0.0
53996.0,STARLINK-5131,PAYLOAD,2022-11-26 06:00:00,15.4240331,0.0001998,53.2167,200.064,31.3992,93.0467,-0.029101,-0.01164783,0.0,0 STARLINK-5131,1 53996U 22125AJ  22330.25001157 -.01164783  00000-0 -29101-1 0  9991,2 53996  53.2167 200.0640 0001998  31.3992  93.0467 15.42403310  8431,6817.156,93.361,440.383,437.659,0.0
53996.0,STARLINK-5131,PAYLOAD,2022-11-26 14:00:01,15.41607186,0.0001714,53.217,198.4883,32.4466,143.3968,-0.03057,-0.01188796,0.0,0 STARLINK-5131,1 53996U 22125AJ  22330.58334491 -.01188796  00000-0 -30570-1 0  9999,2 53996  53.2170 198.4883 0001714  32.4466 143.3968 15.41607186  1308,6819.502,93.409,442.536,440.199,0.0
53996.0,STARLINK-5131,PAYLOAD,2022-11-26 22:00:00,15.40785416,0.0001619,53.2173,196.9174,49.3151,176.9602,-0.031131,-0.01178687,0.0,0 STARLINK-5131,1 53996U 22125AJ  22330.91667824 -.01178687  00000-0 -31131-1 0  9997,2 53996  53.2173 196.9174 0001619  49.3151 176.9602 15.40785416  1308,6821.927,93.459,444.896,442.68800000000016,0.0
53996.0,STARLINK-5131,PAYLOAD,2022-11-27 14:00:01,15.39139022,0.0001662,53.2168,193.7773,32.3303,291.8756,-0.032033,-0.0115092,0.0,0 STARLINK-5131,1 53996U 22125AJ  22331.58334491 -.01150920  00000-0 -32033-1 0  9994,2 53996  53.2168 193.7773 0001662  32.3303 291.8756 15.39139022  8635,6826.791,93.559,449.791,447.521,0.0
53996.0,STARLINK-5131,PAYLOAD,2022-11-27 22:00:00,15.3834925,0.0001483,53.2171,192.2126,47.0047,324.6831,-0.033924,-0.01184266,0.0,0 STARLINK-5131,1 53996U 22125AJ  22331.91667824 -.01184266  00000-0 -33924-1 0  9990,2 53996  53.2171 192.2126 0001483  47.0047 324.6831 15.38349250  1305,6829.127,93.607,452.005,449.98,0.0
53996.0,STARLINK-5131,PAYLOAD,2022-11-28 14:00:01,15.3669138,0.0001743,53.2169,189.0838,39.2471,64.51100000000001,-0.0344089999999999,-0.01141899,0.0,0 STARLINK-5131,1 53996U 22125AJ  22332.58334491 -.01141899  00000-0 -34409-1 0  9999,2 53996  53.2169 189.0838 0001743  39.2471  64.5110 15.36691380  8791,6834.038000000001,93.708,457.094,454.712,0.0
